CCSDS_OMM_VERS = 2.0
CREATION_DATE  = 
ORIGINATOR     = 

OBJECT_NAME    = SL-14 R/B
OBJECT_ID      = 1986-046B
CENTER_NAME    = EARTH
REF_FRAME      = TEME
TIME_SYSTEM    = UTC
MEAN_ELEMENT_THEORY = SGP/SGP4

EPOCH          = 2026-03-05T13:32:05.540928
MEAN_MOTION    = 14.85585893
ECCENTRICITY   = .0021742
INCLINATION    = 82.4782
RA_OF_ASC_NODE = 84.0813
ARG_OF_PERICENTER = 239.7797
MEAN_ANOMALY   = 120.1266

EPHEMERIS_TYPE = 0
CLASSIFICATION_TYPE = U
NORAD_CAT_ID   = 16792
ELEMENT_SET_NO = 999
REV_AT_EPOCH   = 12579
BSTAR          = .71559E-4
MEAN_MOTION_DOT = .645E-5
MEAN_MOTION_DDOT = 0

CCSDS_OMM_VERS = 2.0
CREATION_DATE  = 
ORIGINATOR     = 

OBJECT_NAME    = SL-14 R/B
OBJECT_ID      = 1986-055B
CENTER_NAME    = EARTH
REF_FRAME      = TEME
TIME_SYSTEM    = UTC
MEAN_ELEMENT_THEORY = SGP/SGP4

EPOCH          = 2026-03-05T16:56:40.934112
MEAN_MOTION    = 14.85638740
ECCENTRICITY   = .001853
INCLINATION    = 82.5209
RA_OF_ASC_NODE = 130.4184
ARG_OF_PERICENTER = 350.0678
MEAN_ANOMALY   = 133.4923

EPHEMERIS_TYPE = 0
CLASSIFICATION_TYPE = U
NORAD_CAT_ID   = 16882
ELEMENT_SET_NO = 999
REV_AT_EPOCH   = 11877
BSTAR          = .70193E-4
MEAN_MOTION_DOT = .634E-5
MEAN_MOTION_DDOT = 0

CCSDS_OMM_VERS = 2.0
CREATION_DATE  = 
ORIGINATOR     = 

OBJECT_NAME    = AJISAI (EGS)
OBJECT_ID      = 1986-061A
CENTER_NAME    = EARTH
REF_FRAME      = TEME
TIME_SYSTEM    = UTC
MEAN_ELEMENT_THEORY = SGP/SGP4

EPOCH          = 2026-03-05T20:12:52.999776
MEAN_MOTION    = 12.44515611
ECCENTRICITY   = .001126
INCLINATION    = 50.0080
RA_OF_ASC_NODE = 105.1790
ARG_OF_PERICENTER = 277.1534
MEAN_ANOMALY   = 69.3354

EPHEMERIS_TYPE = 0
CLASSIFICATION_TYPE = U
NORAD_CAT_ID   = 16908
ELEMENT_SET_NO = 999
REV_AT_EPOCH   = 46751
BSTAR          = .14666E-3
MEAN_MOTION_DOT = -.77E-6
MEAN_MOTION_DDOT = 0

CCSDS_OMM_VERS = 2.0
CREATION_DATE  = 
ORIGINATOR     = 

OBJECT_NAME    = COSMOS 1812
OBJECT_ID      = 1987-003A
CENTER_NAME    = EARTH
REF_FRAME      = TEME
TIME_SYSTEM    = UTC
MEAN_ELEMENT_THEORY = SGP/SGP4

EPOCH          = 2026-03-05T21:17:53.851776
MEAN_MOTION    = 16.42967947
ECCENTRICITY   = .001071
INCLINATION    = 82.4638
RA_OF_ASC_NODE = 199.8837
ARG_OF_PERICENTER = 275.6163
MEAN_ANOMALY   = 84.3916

EPHEMERIS_TYPE = 0
CLASSIFICATION_TYPE = U
NORAD_CAT_ID   = 17295
ELEMENT_SET_NO = 999
REV_AT_EPOCH   = 14387
BSTAR          = .27855E-3
MEAN_MOTION_DOT = .7088221E-1
MEAN_MOTION_DDOT = -.12681E-5

CCSDS_OMM_VERS = 2.0
CREATION_DATE  = 
ORIGINATOR     = 

OBJECT_NAME    = SL-14 R/B
OBJECT_ID      = 1987-024B
CENTER_NAME    = EARTH
REF_FRAME      = TEME
TIME_SYSTEM    = UTC
MEAN_ELEMENT_THEORY = SGP/SGP4

EPOCH          = 2026-03-05T14:22:21.549792
MEAN_MOTION    = 14.86127704
ECCENTRICITY   = .0016679
INCLINATION    = 82.5250
RA_OF_ASC_NODE = 96.6097
ARG_OF_PERICENTER = 274.7491
MEAN_ANOMALY   = 85.1820

EPHEMERIS_TYPE = 0
CLASSIFICATION_TYPE = U
NORAD_CAT_ID   = 17567
ELEMENT_SET_NO = 999
REV_AT_EPOCH   = 8752
BSTAR          = .6726E-4
MEAN_MOTION_DOT = .615E-5
MEAN_MOTION_DDOT = 0

CCSDS_OMM_VERS = 2.0
CREATION_DATE  = 
ORIGINATOR     = 

OBJECT_NAME    = COSMOS 1833
OBJECT_ID      = 1987-027A
CENTER_NAME    = EARTH
REF_FRAME      = TEME
TIME_SYSTEM    = UTC
MEAN_ELEMENT_THEORY = SGP/SGP4

EPOCH          = 2026-03-05T18:06:26.991648
MEAN_MOTION    = 14.13055727
ECCENTRICITY   = .0024456
INCLINATION    = 70.9231
RA_OF_ASC_NODE = 334.2889
ARG_OF_PERICENTER = 220.0072
MEAN_ANOMALY   = 139.9248

EPHEMERIS_TYPE = 0
CLASSIFICATION_TYPE = U
NORAD_CAT_ID   = 17589
ELEMENT_SET_NO = 999
REV_AT_EPOCH   = 976
BSTAR          = -.47236E-4
MEAN_MOTION_DOT = -.137E-5
MEAN_MOTION_DDOT = 0

CCSDS_OMM_VERS = 2.0
CREATION_DATE  = 
ORIGINATOR     = 

OBJECT_NAME    = SL-16 R/B
OBJECT_ID      = 1987-027B
CENTER_NAME    = EARTH
REF_FRAME      = TEME
TIME_SYSTEM    = UTC
MEAN_ELEMENT_THEORY = SGP/SGP4

EPOCH          = 2026-03-05T17:44:57.401664
MEAN_MOTION    = 14.17165916
ECCENTRICITY   = .0003603
INCLINATION    = 71.0014
RA_OF_ASC_NODE = 284.8196
ARG_OF_PERICENTER = 151.3924
MEAN_ANOMALY   = 208.7398

EPHEMERIS_TYPE = 0
CLASSIFICATION_TYPE = U
NORAD_CAT_ID   = 17590
ELEMENT_SET_NO = 999
REV_AT_EPOCH   = 1478
BSTAR          = -.45815E-4
MEAN_MOTION_DOT = -.14E-5
MEAN_MOTION_DDOT = 0

CCSDS_OMM_VERS = 2.0
CREATION_DATE  = 
ORIGINATOR     = 

OBJECT_NAME    = SL-14 R/B
OBJECT_ID      = 1987-038B
CENTER_NAME    = EARTH
REF_FRAME      = TEME
TIME_SYSTEM    = UTC
MEAN_ELEMENT_THEORY = SGP/SGP4

EPOCH          = 2026-03-05T17:26:06.134496
MEAN_MOTION    = 14.85365418
ECCENTRICITY   = .0019343
INCLINATION    = 82.5008
RA_OF_ASC_NODE = 300.5415
ARG_OF_PERICENTER = 173.2963
MEAN_ANOMALY   = 186.8516

EPHEMERIS_TYPE = 0
CLASSIFICATION_TYPE = U
NORAD_CAT_ID   = 17912
ELEMENT_SET_NO = 999
REV_AT_EPOCH   = 7864
BSTAR          = .67928E-4
MEAN_MOTION_DOT = .61E-5
MEAN_MOTION_DDOT = 0

CCSDS_OMM_VERS = 2.0
CREATION_DATE  = 
ORIGINATOR     = 

OBJECT_NAME    = COSMOS 1844
OBJECT_ID      = 1987-041A
CENTER_NAME    = EARTH
REF_FRAME      = TEME
TIME_SYSTEM    = UTC
MEAN_ELEMENT_THEORY = SGP/SGP4

EPOCH          = 2026-03-05T08:52:08.438304
MEAN_MOTION    = 14.14553146
ECCENTRICITY   = .0029763
INCLINATION    = 70.8996
RA_OF_ASC_NODE = 43.2872
ARG_OF_PERICENTER = 24.3038
MEAN_ANOMALY   = 335.9480

EPHEMERIS_TYPE = 0
CLASSIFICATION_TYPE = U
NORAD_CAT_ID   = 17973
ELEMENT_SET_NO = 999
REV_AT_EPOCH   = 297
BSTAR          = -.22809E-4
MEAN_MOTION_DOT = -.92E-6
MEAN_MOTION_DDOT = 0

CCSDS_OMM_VERS = 2.0
CREATION_DATE  = 
ORIGINATOR     = 

OBJECT_NAME    = SL-14 R/B
OBJECT_ID      = 1987-055B
CENTER_NAME    = EARTH
REF_FRAME      = TEME
TIME_SYSTEM    = UTC
MEAN_ELEMENT_THEORY = SGP/SGP4

EPOCH          = 2026-03-05T12:02:55.930272
MEAN_MOTION    = 14.85623784
ECCENTRICITY   = .0021508
INCLINATION    = 82.5029
RA_OF_ASC_NODE = 352.9768
ARG_OF_PERICENTER = 31.2603
MEAN_ANOMALY   = 328.9887

EPHEMERIS_TYPE = 0
CLASSIFICATION_TYPE = U
NORAD_CAT_ID   = 18153
ELEMENT_SET_NO = 999
REV_AT_EPOCH   = 6931
BSTAR          = .91608E-4
MEAN_MOTION_DOT = .82E-5
MEAN_MOTION_DDOT = 0

CCSDS_OMM_VERS = 2.0
CREATION_DATE  = 
ORIGINATOR     = 

OBJECT_NAME    = COSMOS 1867
OBJECT_ID      = 1987-060A
CENTER_NAME    = EARTH
REF_FRAME      = TEME
TIME_SYSTEM    = UTC
MEAN_ELEMENT_THEORY = SGP/SGP4

EPOCH          = 2026-03-05T17:43:35.727744
MEAN_MOTION    = 14.31502442
ECCENTRICITY   = .0014431
INCLINATION    = 65.0116
RA_OF_ASC_NODE = 317.7702
ARG_OF_PERICENTER = 278.4028
MEAN_ANOMALY   = 81.5421

EPHEMERIS_TYPE = 0
CLASSIFICATION_TYPE = U
NORAD_CAT_ID   = 18187
ELEMENT_SET_NO = 999
REV_AT_EPOCH   = 1937
BSTAR          = .39946E-4
MEAN_MOTION_DOT = .6E-7
MEAN_MOTION_DDOT = 0

CCSDS_OMM_VERS = 2.0
CREATION_DATE  = 
ORIGINATOR     = 

OBJECT_NAME    = SL-14 R/B
OBJECT_ID      = 1988-001B
CENTER_NAME    = EARTH
REF_FRAME      = TEME
TIME_SYSTEM    = UTC
MEAN_ELEMENT_THEORY = SGP/SGP4

EPOCH          = 2026-03-05T20:00:43.021728
MEAN_MOTION    = 14.85522565
ECCENTRICITY   = .001667
INCLINATION    = 82.5146
RA_OF_ASC_NODE = 198.9857
ARG_OF_PERICENTER = 249.4815
MEAN_ANOMALY   = 110.4612

EPHEMERIS_TYPE = 0
CLASSIFICATION_TYPE = U
NORAD_CAT_ID   = 18749
ELEMENT_SET_NO = 999
REV_AT_EPOCH   = 4145
BSTAR          = .97109E-4
MEAN_MOTION_DOT = .864E-5
MEAN_MOTION_DDOT = 0

